{"type": "FeatureCollection", "features": [{"type": "Feature", "properties": {"kind": "aza", "name": "三俣", "jinko": 279, "setai": 112, "label_lng": 135.218583, "label_lat": 35.260346}, "geometry": {"type": "Polygon", "coordinates": [[[135.21617872528495, 35.27694045478143], [135.21701617194995, 35.27692340430614], [135.217692462821, 35.27724262074226], [135.21843036061696, 35.27722773475584], [135.21946989315296, 35.277594281702065], [135.22000560604738, 35.27754716930613], [135.22130678393688, 35.27711695508946], [135.22176822588622, 35.27658289016245], [135.2220471751365, 35.27611229901671], [135.2225871480027, 35.27562662273377], [135.2231676764164, 35.27519169448883], [135.22375750162342, 35.275042238494514], [135.22552423636094, 35.27421222476357], [135.22590143232074, 35.27388203610175], [135.22635575252136, 35.27318875731139], [135.2270817685629, 35.27300099720918], [135.2278247470104, 35.273333401933314], [135.2281430516079, 35.273335429270894], [135.22844673807023, 35.27320370303857], [135.23024728145623, 35.27174123703913], [135.23081974137529, 35.2715899437564], [135.23117306806589, 35.27125634503139], [135.2312406873351, 35.27084262661602], [135.23163201842064, 35.27048483206893], [135.23173383670374, 35.26981372883081], [135.23190684571944, 35.26940560697265], [135.23286802487422, 35.268532832394115], [135.2332621762155, 35.26830215973585], [135.23421600103234, 35.26799840180953], [135.23472211035678, 35.26792335819839], [135.23587816001313, 35.26747903602434], [135.23642217346793, 35.266968879707164], [135.23692861378177, 35.26684812591624], [135.23726953055902, 35.26656006378999], [135.23731991965494, 35.26606637389186], [135.23765084435152, 35.26535923916576], [135.23811569039955, 35.26521378406067], [135.238572352287, 35.264887289103406], [135.2384838403231, 35.26435357350174], [135.23798513089693, 35.2634390441777], [135.23724489326, 35.26281968109807], [135.2370659762674, 35.26237835008592], [135.2375608334896, 35.261584149275095], [135.23760207401546, 35.261214343632396], [135.23814900126135, 35.26059820922247], [135.23815373018527, 35.260092822262315], [135.23866515573604, 35.259434069883724], [135.23835294622032, 35.258566346335726], [135.23801415422076, 35.257998448007335], [135.23796726158233, 35.257266049343066], [135.23732554601582, 35.256968566731544], [135.23701644467647, 35.25599163251038], [135.2365197356926, 35.25529231752596], [135.2364289591054, 35.254783018680875], [135.23656412271617, 35.25373549911093], [135.23620020002122, 35.253186944182], [135.23613264295636, 35.25284715757566], [135.23618767602375, 35.25263581651117], [135.23580255253444, 35.252572475592785], [135.23543327955423, 35.25232937577692], [135.2352340823115, 35.25206706697001], [135.23523530567834, 35.251936583619084], [135.23591122978112, 35.25173929886733], [135.23596510091213, 35.250515640400245], [135.23612044863404, 35.250180214997464], [135.2366669458104, 35.24982253352596], [135.2368938284005, 35.24958466947234], [135.23719256688494, 35.24886000862991], [135.2375064300629, 35.248592265574295], [135.23801266511776, 35.24856354578692], [135.2388412089309, 35.24793206243435], [135.24022434992597, 35.24663989837635], [135.24013047719112, 35.24588959901976], [135.23980560555574, 35.24563665139066], [135.23871005423103, 35.243976558677524], [135.23797963848733, 35.24358190692207], [135.23750779933914, 35.24314824327317], [135.23734774411213, 35.24286005489229], [135.23734606583395, 35.24265412939177], [135.237591863494, 35.24229166285992], [135.23778115084602, 35.241537291606846], [135.2376772578779, 35.24110882484507], [135.23632488104317, 35.24119313637578], [135.2355393465357, 35.24138980860115], [135.23476812498487, 35.24176198980839], [135.23376388851577, 35.24151635666329], [135.233325139264, 35.24151935948858], [135.2330507784472, 35.2419048779329], [135.2308500012365, 35.242855311827746], [135.23051998963058, 35.24314180886312], [135.23008330185692, 35.24329854690933], [135.22969019353474, 35.243339571830894], [135.22797716382712, 35.244336567852095], [135.22741569533227, 35.24440693695555], [135.22702725832758, 35.24432615356822], [135.2267529990365, 35.24414461819404], [135.2260575534235, 35.243977721964505], [135.2259130153538, 35.24373173064988], [135.2256134071763, 35.243616719735186], [135.2252132285911, 35.243651841011], [135.22453871643592, 35.24351415193807], [135.22189482735715, 35.24361320984084], [135.2215003272039, 35.24342215679577], [135.22037780182768, 35.24259557859419], [135.21977454665705, 35.24259317493832], [135.2195951446458, 35.24285307542003], [135.21919338498537, 35.24306217790601], [135.21897424223042, 35.24303463872803], [135.2191154105964, 35.24277871765629], [135.21903331444707, 35.242773260781235], [135.21850158577772, 35.24333257505437], [135.21836131323727, 35.24363800788505], [135.21847041185293, 35.24453384612815], [135.21882895930347, 35.24466960769653], [135.21926615378283, 35.244651370375784], [135.2201342891767, 35.24436195984075], [135.22051161649514, 35.244329248304254], [135.22107562788975, 35.24448737971117], [135.2217747752469, 35.24485010879711], [135.2218664789714, 35.24511759545532], [135.22156602876302, 35.24607086626329], [135.22084124610262, 35.24646712182322], [135.2209125449246, 35.24675849065927], [135.22112339709824, 35.246927238161376], [135.22080526536476, 35.24696244663508], [135.2170368587056, 35.24860941587835], [135.21609235981128, 35.2489241536938], [135.21296781971967, 35.24933249780532], [135.21270970693647, 35.249853775761835], [135.21216432311817, 35.2502441033896], [135.21114929229293, 35.25067517660862], [135.21049251553967, 35.25113977196487], [135.21048904381325, 35.25153347917641], [135.2081550532913, 35.25164183679223], [135.20636652701916, 35.25152287393068], [135.2050043827678, 35.25130168680484], [135.20420196555247, 35.25132747190262], [135.2032741274266, 35.251747845966904], [135.2024268590485, 35.252285572948374], [135.20048646746187, 35.25437042953081], [135.20018450810755, 35.25585038872847], [135.20564073537787, 35.25853493076241], [135.20497290464166, 35.25926962344243], [135.20465792336927, 35.259434101595204], [135.20416128560203, 35.259490907919705], [135.20169649227446, 35.2595273604235], [135.2007314103954, 35.25960247419063], [135.19993378910692, 35.25980452851192], [135.19937019486346, 35.26008685476528], [135.19861025227863, 35.26063844083058], [135.19593005761038, 35.262930914799306], [135.19546150394686, 35.26294921145268], [135.1948607621751, 35.26270304223629], [135.194542077445, 35.26291704579287], [135.1942694943822, 35.26284495225918], [135.19333375280664, 35.262344934323586], [135.19290374822123, 35.262355027288976], [135.19173760564294, 35.263106670334096], [135.18968957188338, 35.264175635661616], [135.18930746590468, 35.26456567630873], [135.18854601345163, 35.265653860907044], [135.18826217970948, 35.26590913549559], [135.1860216755492, 35.2667128139202], [135.186658598663, 35.26798804788619], [135.20135569177802, 35.27490767094348], [135.20240749647704, 35.27535303887694], [135.2031450247772, 35.27548985951509], [135.20407727291507, 35.27606252363779], [135.21020170913795, 35.27822901564908], [135.21216623380502, 35.279247836892296], [135.21237654738752, 35.27911448867839], [135.21317884340283, 35.27811591579334], [135.21353098985773, 35.277887714481025], [135.2142733314581, 35.27776879988313], [135.21595877852587, 35.276978397398594], [135.21617872528495, 35.27694045478143]]]}}, {"type": "Feature", "properties": {"kind": "aza", "name": "上野", "jinko": 79, "setai": 33, "label_lng": 135.205285, "label_lat": 35.242984}, "geometry": {"type": "Polygon", "coordinates": [[[135.19078205192622, 35.255121753865005], [135.1909360219018, 35.255109473002534], [135.19114522070342, 35.25525030396761], [135.19505376444445, 35.258159960370094], [135.19649055351425, 35.25819590681543], [135.19813825066328, 35.25776443731748], [135.1986913980108, 35.2574518352303], [135.1991747832563, 35.25705651738756], [135.1999142878312, 35.256265429867575], [135.20018450810755, 35.25585038872847], [135.20039982688868, 35.25497569552213], [135.20059332815947, 35.253016714453764], [135.20045070632443, 35.252721902548714], [135.2001193011652, 35.252418518500335], [135.1987857777759, 35.25166182142962], [135.1970635079985, 35.251215276222936], [135.19644836058436, 35.25116725584915], [135.1962075040932, 35.25100713958912], [135.19488341983978, 35.249256889683984], [135.19414018714673, 35.24871604031174], [135.19409903025678, 35.24841598111108], [135.19416232357432, 35.24823992484853], [135.19449504862197, 35.248006716068346], [135.19504400174847, 35.24792254640256], [135.1974836270687, 35.24805407422237], [135.20086063820384, 35.24797006926963], [135.2018223856049, 35.24776556856607], [135.20240666733537, 35.2475437865756], [135.20390188884073, 35.246429477298044], [135.20457357896083, 35.246221638689505], [135.20678355144756, 35.24586543148776], [135.2106701350452, 35.24606286180992], [135.21103037372194, 35.24596992622584], [135.2118370301812, 35.24633474916768], [135.21240647481005, 35.24648992918406], [135.21477419703953, 35.24446854638657], [135.21500911712138, 35.24403457805681], [135.21567067019666, 35.24361752580913], [135.21594755353362, 35.24328227661098], [135.21595911911768, 35.242775946551944], [135.21570188938452, 35.242148017787706], [135.2153780350754, 35.24156670026588], [135.21432044016976, 35.24046915138222], [135.21522717552114, 35.24028678726346], [135.21551598266035, 35.239879996607684], [135.21562072532342, 35.23917272114989], [135.21576606605478, 35.238867184361816], [135.2161175269713, 35.238424319272255], [135.21691577705187, 35.23780912933896], [135.21569170600648, 35.236505025205204], [135.21395648175047, 35.23541237972206], [135.21352414147577, 35.23431816998049], [135.21372939029672, 35.233478306991536], [135.21342314123046, 35.232473505711994], [135.21312635603368, 35.23202770680452], [135.2128624739438, 35.23181902278131], [135.21249432697263, 35.23120895642462], [135.21190361138702, 35.2307258226776], [135.21075477313929, 35.231147783948465], [135.21002780960373, 35.23106889441676], [135.20968575748645, 35.231116523276214], [135.20933771989885, 35.230949324145364], [135.20811834500614, 35.229308690196056], [135.2077418074751, 35.229019539922106], [135.2065180618119, 35.22894625239136], [135.20558861615015, 35.22832586962533], [135.2051841354271, 35.22827230244805], [135.20437681319785, 35.227856304584385], [135.20395096830862, 35.227776044846806], [135.20303115939876, 35.227824224892345], [135.2024825645029, 35.228018783463966], [135.2020631454972, 35.22769391323845], [135.2017503869416, 35.22765199442923], [135.20145661548472, 35.22773083312858], [135.20098899440296, 35.22751747155987], [135.20063519030705, 35.22752175826423], [135.20037641734052, 35.22803145537461], [135.1995654201541, 35.22827293081673], [135.19878565330865, 35.22835742510431], [135.1975743644613, 35.228249834770295], [135.19726205201707, 35.22802305048235], [135.19697039752748, 35.22802555720274], [135.19639933628574, 35.22844233758418], [135.19579010888253, 35.2284814703709], [135.19563333164314, 35.22877486546275], [135.19538689763658, 35.22897801887824], [135.19493473201553, 35.229112272649424], [135.19504694941634, 35.22936005754838], [135.19478384582905, 35.23301602383108], [135.1950779911063, 35.23664991187991], [135.1955866089149, 35.23925396891591], [135.19563519335736, 35.24057604130621], [135.19552235698183, 35.24125042899944], [135.19538593092582, 35.24169677339818], [135.19482141290686, 35.242769919333], [135.19365578489283, 35.243924699376905], [135.1900940705587, 35.24686994231465], [135.18970664500137, 35.247354530377294], [135.18943024456797, 35.247948097360734], [135.18923267648054, 35.248607682834376], [135.18896622352173, 35.25009862697552], [135.18882792853222, 35.255530018542586], [135.18913770015016, 35.25723622260633], [135.1896713727863, 35.258496183711664], [135.1905481174656, 35.25802310837845], [135.19055497912908, 35.25677979148251], [135.19013244750886, 35.25609317447039], [135.19008603580465, 35.25587385375093], [135.19014548653132, 35.25560207186208], [135.19034241827154, 35.25534451786699], [135.19078205192622, 35.255121753865005]]]}}, {"type": "Feature", "properties": {"kind": "aza", "name": "坂室", "jinko": 12, "setai": 5, "label_lng": 135.19923, "label_lat": 35.250341}, "geometry": {"type": "Polygon", "coordinates": [[[135.2039285689078, 35.25142989933574], [135.20225491370076, 35.24988262865452], [135.20273254713473, 35.249279158638515], [135.20330959366288, 35.24893781814667], [135.20308709939547, 35.24822516212401], [135.20320544659677, 35.24785988715243], [135.20343785969138, 35.247558108399915], [135.20324716350098, 35.24694742156727], [135.20240666733537, 35.24754378657558], [135.2018223856049, 35.24776556856607], [135.20086063820384, 35.24797006926963], [135.1974836270687, 35.24805407422239], [135.19504400174847, 35.24792254640254], [135.19449504862197, 35.248006716068346], [135.19416232357432, 35.24823992484853], [135.19409903025678, 35.24841598111108], [135.19414018714673, 35.24871604031174], [135.19488341983978, 35.249256889683984], [135.1962075040932, 35.25100713958912], [135.19644836058436, 35.25116725584915], [135.1970635079986, 35.251215276222936], [135.1987857777759, 35.25166182142962], [135.2001193011652, 35.25241851850035], [135.20045070632443, 35.25272190254871], [135.20059332815947, 35.253016714453764], [135.200483417219, 35.253657671671775], [135.20048646746187, 35.25437042953081], [135.2024268590485, 35.25228557294839], [135.2039285689078, 35.25142989933574]]]}}, {"type": "Feature", "properties": {"kind": "aza", "name": "堀越", "jinko": 49, "setai": 20, "label_lng": 135.210047, "label_lat": 35.248913}, "geometry": {"type": "Polygon", "coordinates": [[[135.21296781971967, 35.24933249780532], [135.21288894299428, 35.248673258795655], [135.21295365939864, 35.24829227334355], [135.21336882947674, 35.247569691339756], [135.21370388406268, 35.24730250104904], [135.21240647481005, 35.24648992918406], [135.2118370301812, 35.24633474916768], [135.21103037372194, 35.24596992622584], [135.2106701350452, 35.24606286180992], [135.20670664861228, 35.24588182908809], [135.20666609846563, 35.24678437491541], [135.20723837289958, 35.24915317824405], [135.20741524347793, 35.25024440000861], [135.20786938984006, 35.251628841081185], [135.21048904381325, 35.25153347917642], [135.21049251553967, 35.25113977196487], [135.21114929229293, 35.25067517660862], [135.21216432311817, 35.250244103389626], [135.21270970693647, 35.249853775761835], [135.21296781971967, 35.24933249780532]]]}}, {"type": "Feature", "properties": {"kind": "aza", "name": "岩崎", "jinko": 89, "setai": 34, "label_lng": 135.19064, "label_lat": 35.262048}, "geometry": {"type": "Polygon", "coordinates": [[[135.1948607621751, 35.26270304223629], [135.19492096070354, 35.262397745746476], [135.1948557393171, 35.26190774602738], [135.19430692760338, 35.26043158507932], [135.19360708894052, 35.25929630916738], [135.19308784885902, 35.25862652258407], [135.1925260073313, 35.25819327826338], [135.19181709951147, 35.25787256888609], [135.19107658762553, 35.25763988375056], [135.1905288195544, 35.257623760292184], [135.1905481174656, 35.25802310837845], [135.1896713727863, 35.258496183711664], [135.18924820943363, 35.2588907414416], [135.1861093625053, 35.26237132098722], [135.18512458955183, 35.264272119900234], [135.18557700027827, 35.264598325745574], [135.18544476421184, 35.26470208029064], [135.18583141116838, 35.26503643368459], [135.18602167554923, 35.2667128139202], [135.18826217970948, 35.26590913549559], [135.18854601345163, 35.26565386090704], [135.18930746590462, 35.26456567630873], [135.18968957188338, 35.26417563566159], [135.19173760564294, 35.26310667033411], [135.19290374822123, 35.262355027288976], [135.19333375280664, 35.262344934323586], [135.19426949438224, 35.26284495225918], [135.19454207744494, 35.26291704579288], [135.1948607621751, 35.26270304223629]]]}}, {"type": "Feature", "properties": {"kind": "aza", "name": "正後寺", "jinko": 31, "setai": 14, "label_lng": 135.205136, "label_lat": 35.248581}, "geometry": {"type": "Polygon", "coordinates": [[[135.20786938984006, 35.251628841081185], [135.20741524347793, 35.25024440000861], [135.20723837289958, 35.24915317824405], [135.20666609846563, 35.24678437491541], [135.20670664861228, 35.24588182908809], [135.20457357896083, 35.24622163868951], [135.20390188884073, 35.246429477298044], [135.20324716350098, 35.24694742156727], [135.20343785969138, 35.247558108399915], [135.20320544659677, 35.24785988715243], [135.20308709939547, 35.24822516212401], [135.20330959366288, 35.24893781814667], [135.20273254713473, 35.249279158638515], [135.20225491370076, 35.24988262865452], [135.2039285689078, 35.25142989933574], [135.20420196555247, 35.25132747190262], [135.2050043827678, 35.25130168680484], [135.20636652701916, 35.25152287393068], [135.20786938984006, 35.251628841081185]]]}}, {"type": "Feature", "properties": {"kind": "aza", "name": "池田", "jinko": 91, "setai": 39, "label_lng": 135.199301, "label_lat": 35.259152}, "geometry": {"type": "Polygon", "coordinates": [[[135.20564073537787, 35.25853493076241], [135.20018450810755, 35.25585038872847], [135.1999142878312, 35.256265429867575], [135.19917478325627, 35.257056517387575], [135.1986913980108, 35.2574518352303], [135.19813825066328, 35.25776443731748], [135.19649055351425, 35.25819590681543], [135.19579477127428, 35.25821375439634], [135.19505376444445, 35.258159960370094], [135.1909360219018, 35.255109473002534], [135.1903424182715, 35.255344517867], [135.19014548653132, 35.25560207186208], [135.19008603580465, 35.25587385375093], [135.1901324475088, 35.25609317447039], [135.19055497912908, 35.25677979148249], [135.1905288195544, 35.257623760292184], [135.19107658762553, 35.25763988375056], [135.1925260073313, 35.25819327826338], [135.19308784885902, 35.25862652258407], [135.19360708894052, 35.25929630916738], [135.19430692760338, 35.26043158507932], [135.1948557393171, 35.26190774602738], [135.19492096070354, 35.262397745746476], [135.1948607621751, 35.26270304223629], [135.19546150394686, 35.26294921145268], [135.19593005761038, 35.262930914799306], [135.19616815117232, 35.26278278024626], [135.19651175262084, 35.26240098599915], [135.1986102522786, 35.26063844083062], [135.19937019486346, 35.26008685476528], [135.19993378910692, 35.25980452851191], [135.2007314103954, 35.25960247419063], [135.20465792336927, 35.259434101595204], [135.20524265226632, 35.259033508966], [135.20564073537787, 35.25853493076241]]]}}, {"type": "Feature", "properties": {"kind": "aza", "name": "生野", "jinko": 47, "setai": 20, "label_lng": 135.214385, "label_lat": 35.246201}, "geometry": {"type": "Polygon", "coordinates": [[[135.21370388406268, 35.24730250104904], [135.21455033740716, 35.247664887927094], [135.21470335520075, 35.24761587918583], [135.21489854786805, 35.24715447188038], [135.21566907254032, 35.24714692446254], [135.21603676490858, 35.246992966459906], [135.21604631380106, 35.2463928227702], [135.2158176619195, 35.24518466377811], [135.21450772282586, 35.2447114658529], [135.21240647481005, 35.24648992918406], [135.21370388406268, 35.24730250104904]]]}}, {"type": "Feature", "properties": {"kind": "aza", "name": "萩原", "jinko": 243, "setai": 95, "label_lng": 135.217112, "label_lat": 35.243475}, "geometry": {"type": "Polygon", "coordinates": [[[135.21899645748627, 35.247704882766975], [135.22080526536476, 35.24696244663508], [135.22112339709824, 35.246927238161376], [135.2209125449246, 35.24675849065927], [135.22084124610262, 35.24646712182322], [135.22156602876302, 35.24607086626329], [135.2218664789714, 35.24511759545532], [135.2217747752469, 35.24485010879711], [135.22107562788975, 35.24448737971117], [135.22051161649514, 35.244329248304254], [135.2201342891767, 35.24436195984075], [135.21926615378283, 35.244651370375784], [135.21882895930347, 35.24466960769653], [135.21847041185293, 35.24453384612815], [135.21836131323727, 35.24363800788505], [135.21850158577772, 35.24333257505437], [135.2189029598197, 35.2428412220925], [135.2191154105964, 35.24277871765629], [135.22007577757878, 35.24102054470469], [135.22016499851972, 35.24042457235823], [135.21995558162348, 35.24001808589417], [135.2195824516439, 35.239928219099326], [135.21833508601367, 35.23990025187387], [135.21797928409333, 35.239695422624536], [135.21737395149577, 35.23899053327016], [135.21723086370656, 35.238471935859025], [135.21691577705187, 35.23780912933896], [135.2161175269713, 35.238424319272255], [135.21576606605478, 35.238867184361816], [135.21562072532342, 35.23917272114989], [135.21551598266035, 35.239879996607684], [135.21522717552114, 35.24028678726346], [135.21432044016976, 35.24046915138222], [135.2153780350754, 35.24156670026588], [135.21595911911768, 35.242775946551944], [135.21594755353362, 35.24328227661098], [135.21567067019666, 35.24361752580913], [135.21500911712138, 35.24403457805681], [135.2148860266323, 35.24433708809699], [135.21450772282589, 35.24471146585287], [135.21581766191952, 35.24518466377811], [135.21608713434796, 35.246905828757576], [135.2159139794336, 35.24706724202533], [135.21566907254032, 35.24714692446254], [135.21489854786805, 35.24715447188038], [135.21470335520075, 35.24761587918588], [135.2146191297607, 35.24765279799595], [135.21445137342477, 35.24764544342363], [135.21370388406268, 35.24730250104904], [135.21353087593337, 35.24737694146702], [135.21295365939864, 35.24829227334355], [135.21288894299428, 35.248673258795655], [135.21296781971967, 35.24933249780532], [135.21609235981128, 35.2489241536938], [135.2170368587056, 35.24860941587835], [135.21899645748627, 35.247704882766975]]]}}, {"type": "Feature", "properties": {"kind": "boundary", "name": "上六人部"}, "geometry": {"type": "MultiPolygon", "coordinates": [[[[135.18512460376562, 35.26427211612475], [135.18556758192526, 35.26459184985511], [135.18544478202986, 35.26470208071574], [135.18583111948973, 35.265037655520764], [135.18598289247535, 35.26662543725459], [135.1866586062631, 35.26798803988803], [135.20135575378606, 35.27490769798412], [135.20240728882604, 35.27535296260546], [135.203143845781, 35.27548941341578], [135.2040775295754, 35.27606261254196], [135.2102010584617, 35.2782287850581], [135.21216623325745, 35.27924782426169], [135.21237653658358, 35.279114476723294], [135.21317854811397, 35.27811636172036], [135.21352921805254, 35.277888862663154], [135.21427332787394, 35.27776878850102], [135.21595923958657, 35.27697835916809], [135.2164748200786, 35.276886234548066], [135.2170152170901, 35.2769233820894], [135.2176924658804, 35.27724260816718], [135.21843124560732, 35.27722803844365], [135.21946989468182, 35.27759427103914], [135.2200056026547, 35.277547152866795], [135.22130652804572, 35.27711703969589], [135.22176821788892, 35.276582884406665], [135.22204759497924, 35.27611199002712], [135.2225875064762, 35.27562635416766], [135.22316776177857, 35.27519187321649], [135.2237577134994, 35.275042140027146], [135.22552423074507, 35.27421221626429], [135.22590142455766, 35.27388202934875], [135.2263569455809, 35.27318884139484], [135.22708123835847, 35.27300156195342], [135.22782474988625, 35.27333338867027], [135.22814304887495, 35.273335415888354], [135.2284469171676, 35.27320355605038], [135.23024644482453, 35.27174198416677], [135.23081973548204, 35.271589933323995], [135.23117305809967, 35.27125633974036], [135.2312419710747, 35.27084169901915], [135.23163200757318, 35.27048482627808], [135.2317338073896, 35.269814154098434], [135.23190703161785, 35.269405737482515], [135.23286729485199, 35.26853347750011], [135.23326270339112, 35.2683020954963], [135.23421644476642, 35.267998374155646], [135.2347221057515, 35.26792334126858], [135.23587792879457, 35.267479122615256], [135.23642188713364, 35.2669694428334], [135.23692860876758, 35.26684811599145], [135.23726951978296, 35.26656005810465], [135.23732022152282, 35.266065876657066], [135.23765071012033, 35.265360659132966], [135.23811568412793, 35.265213771464914], [135.23857233873466, 35.264887283486985], [135.23848382495476, 35.26435357885119], [135.23798525782755, 35.26343927918028], [135.23724580393636, 35.26282013856058], [135.23706715807415, 35.26237939649105], [135.2375608239369, 35.26158414595871], [135.23760298725375, 35.26121363015059], [135.23814898843938, 35.26059820428378], [135.23815480165658, 35.26009172322147], [135.23866514185954, 35.259434067681546], [135.23835293573967, 35.258566351290675], [135.23801457996905, 35.2579988119495], [135.23796725048018, 35.25726605694376], [135.23732559897107, 35.2569671402368], [135.23701643113068, 35.25599163941484], [135.23651995182374, 35.25529222855305], [135.23642907695537, 35.25478250807139], [135.2365641094114, 35.25373550221215], [135.2362000517821, 35.253185957213795], [135.23613289958612, 35.25284761612619], [135.23618766189517, 35.25263582569771], [135.23580263398784, 35.25257226719952], [135.23543470947507, 35.25233031712252], [135.23523515892379, 35.25206819257466], [135.2352352934983, 35.25194302825379], [135.2359112190834, 35.251739290471754], [135.23596593035973, 35.250513849464454], [135.2361219367175, 35.250178857495456], [135.23666693979087, 35.24982252525053], [135.23689381931047, 35.249584663563525], [135.23719371219977, 35.248859090509775], [135.2375070699442, 35.248592614921385], [135.2380128621911, 35.248563395585414], [135.23884139316803, 35.24793189006281], [135.2402243383583, 35.24663989416678], [135.24013046534415, 35.24588960596851], [135.23980536803157, 35.24563619608397], [135.23871004604726, 35.243976567649966], [135.23797935199457, 35.24358159726806], [135.23750824300973, 35.2431485735809], [135.2373489808126, 35.24286228164064], [135.23734651959708, 35.24265426671605], [135.237591854682, 35.24229165891557], [135.2377811389262, 35.24153729155944], [135.2376772486399, 35.24110883737669], [135.23632465900823, 35.24119319196609], [135.23553935098184, 35.24138982087775], [135.23476756867163, 35.24176140751597], [135.23376388752962, 35.24151636508827], [135.23332514492273, 35.24151937036953], [135.23304901808737, 35.24190558662168], [135.2308502344401, 35.24285521050344], [135.2305190823297, 35.24314208901392], [135.23008328566246, 35.24329847592195], [135.22969019792896, 35.2433395852919], [135.22797803318426, 35.2443360033798], [135.22741734615764, 35.24440673005685], [135.22605979329498, 35.24397805243991], [135.22591300756213, 35.24373173984352], [135.22561340571926, 35.243616730112755], [135.2252127546948, 35.24365169698432], [135.22453841803903, 35.24351416311803], [135.22189441473782, 35.24361279861399], [135.22150035891534, 35.24342210621546], [135.22037779819382, 35.24259559200112], [135.21977455267248, 35.24259318645569], [135.21959294217046, 35.242854221734895], [135.2191941916775, 35.24306156979656], [135.21898543602958, 35.24303692330308], [135.22007576852863, 35.24102054167937], [135.22016498470364, 35.24042457463849], [135.21995569088702, 35.240018297991426], [135.21958218423825, 35.239928213103816], [135.2183366415955, 35.23990023679461], [135.21797938222963, 35.23969530520742], [135.2173743991527, 35.23899080172888], [135.21699871803446, 35.237894883007186], [135.21594167296482, 35.236764557122356], [135.2156914496442, 35.2365048638032], [135.21395688672072, 35.23541204395558], [135.2135247628939, 35.23431915826322], [135.213729379797, 35.233478307325825], [135.2134231299371, 35.23247351099957], [135.21312634588938, 35.23202771615165], [135.212862034313, 35.231818216478516], [135.21249431973578, 35.23120896274016], [135.21190360928634, 35.23072583505466], [135.21075474577944, 35.23114763071768], [135.2100278088431, 35.23106890691973], [135.20968393707716, 35.23111559583496], [135.20933684951518, 35.230948002944565], [135.2081185468035, 35.22930893953717], [135.20774180382378, 35.22901955031917], [135.2065186818894, 35.228946066301575], [135.20558861241048, 35.22832587955716], [135.20518418025375, 35.22827215942891], [135.20437680939716, 35.22785631564284], [135.2039512562065, 35.22777609910743], [135.20303116253518, 35.227824239181125], [135.20248324403926, 35.22801768820193], [135.20206314126665, 35.22769392305186], [135.20175038773723, 35.227652006752294], [135.20145617725956, 35.22773015573752], [135.20098899123533, 35.22751748657078], [135.2006351976587, 35.22752177008033], [135.20037325543407, 35.22803234318703], [135.19956541251898, 35.228272893603965], [135.1987856536733, 35.228357380098025], [135.19757625664985, 35.22824994673819], [135.19726204757285, 35.22802306436912], [135.1969704018902, 35.22802557038846], [135.19639919511846, 35.22844194759822], [135.19579011666445, 35.228481482456], [135.19563318168605, 35.22877474268751], [135.19538766122503, 35.22897732439094], [135.1949347485341, 35.22911228019449], [135.19504671827025, 35.22936267235836], [135.19478385573902, 35.233016228088275], [135.19507796789892, 35.23664967758872], [135.19558663764678, 35.239254750763244], [135.19563514198, 35.24057603798657], [135.19538621183565, 35.24169585434698], [135.19482042275513, 35.24277095048367], [135.19365544128098, 35.24392497649244], [135.19009407884482, 35.246869950357315], [135.18970666015045, 35.24735453977204], [135.18943039755408, 35.24794776890932], [135.18923262624782, 35.248607963912775], [135.1889662306516, 35.25009862769917], [135.1888279367543, 35.25553001808451], [135.1891376163543, 35.2572358852483], [135.1896686539774, 35.258496258290585], [135.18610937240598, 35.26237132821295], [135.18512460376562, 35.26427211612475]]], [[[135.18602167553908, 35.2667128139247], [135.1860216640889, 35.26671281900904], [135.18602166409124, 35.26671281901424], [135.18602167553908, 35.2667128139247]]]]}}]}